ONEWEB-0196             
1 48218U 21031J   25311.10533670 -.00000269  00000+0 -75904-3 0  9993
2 48218  87.8996 333.9545 0001986  90.0268 270.1089 13.14501105219058
ONEWEB-0183             
1 48219U 21031K   25311.07997622  .00000007  00000+0 -14897-4 0  9995
2 48219  87.8995 333.9663 0001641  91.3352 268.7966 13.14503735219143
ONEWEB-0185             
1 48220U 21031L   25311.03003662 -.00000094  00000+0 -28832-3 0  9995
2 48220  87.8999 333.9468 0001758  81.1087 279.0242 13.14501879219063
ONEWEB-0187             
1 48221U 21031M   25311.08617288 -.00000170  00000+0 -49434-3 0  9992
2 48221  87.8997 333.9809 0001910  84.7363 275.3984 13.14500907219082
ONEWEB-0192             
1 48222U 21031N   25311.13231073  .00000185  00000+0  46343-3 0  9993
2 48222  87.8993 333.9633 0001935  93.4089 266.7262 13.14503961219001
ONEWEB-0219             
1 48223U 21031P   25311.11168198 -.00000003  00000+0 -41301-4 0  9990
2 48223  87.9000 333.9423 0001798  85.1080 275.0255 13.14504902219208
ONEWEB-0202             
1 48224U 21031Q   25311.01656211 -.00000159  00000+0 -46427-3 0  9993
2 48224  87.8998 333.9749 0002562  88.1876 271.9547 13.14502850219176
ONEWEB-0204             
1 48225U 21031R   25311.12676052  .00000186  00000+0  46801-3 0  9995
2 48225  87.9005 333.9414 0001566  92.6672 267.4637 13.14501417219081
